[{"OBJECT_NAME":"SJ-11-01","OBJECT_ID":"2009-061A","EPOCH":"2026-03-09T22:23:06.372960","MEAN_MOTION":14.6357145,"ECCENTRICITY":0.0010599,"INCLINATION":97.9987,"RA_OF_ASC_NODE":52.7837,"ARG_OF_PERICENTER":343.574,"MEAN_ANOMALY":101.0983,"EPHEMERIS_TYPE":0,"CLASSIFICATION_TYPE":"U","NORAD_CAT_ID":36088,"ELEMENT_SET_NO":999,"REV_AT_EPOCH":86997,"BSTAR":0.00019291799,"MEAN_MOTION_DOT":9.56e-6,"MEAN_MOTION_DDOT":0},{"OBJECT_NAME":"NOAA 16 DEB","OBJECT_ID":"2000-055SQ","EPOCH":"2026-03-08T20:22:48.766656","MEAN_MOTION":14.58013987,"ECCENTRICITY":0.00241325,"INCLINATION":98.7977,"RA_OF_ASC_NODE":216.2587,"ARG_OF_PERICENTER":315.5361,"MEAN_ANOMALY":44.3899,"EPHEMERIS_TYPE":0,"CLASSIFICATION_TYPE":"U","NORAD_CAT_ID":42396,"ELEMENT_SET_NO":999,"REV_AT_EPOCH":52268,"BSTAR":0.0036257284,"MEAN_MOTION_DOT":0.00016715,"MEAN_MOTION_DDOT":0}]
